[{"CCSDS_OMM_VERS":"2.0","COMMENT":"GENERATED VIA SPACE-TRACK.ORG API","CREATION_DATE":"2020-06-13T17:56:09","ORIGINATOR":"18 SPCS","OBJECT_NAME":"STARLINK-1024","OBJECT_ID":"2019-074S","CENTER_NAME":"EARTH","REF_FRAME":"TEME","TIME_SYSTEM":"UTC","MEAN_ELEMENT_THEORY":"SGP4","EPOCH":"2020-06-13T16:00:01.999584","MEAN_MOTION":"15.05548634","ECCENTRICITY":"0.00009990","INCLINATION":"52.9988","RA_OF_ASC_NODE":"251.5400","ARG_OF_PERICENTER":"108.8017","MEAN_ANOMALY":"78.0653","EPHEMERIS_TYPE":"0","CLASSIFICATION_TYPE":"U","NORAD_CAT_ID":"44729","ELEMENT_SET_NO":"999","REV_AT_EPOCH":"3289","BSTAR":"0.00283260000000","MEAN_MOTION_DOT":"0.00041198","MEAN_MOTION_DDOT":"0.0000000000000","SEMIMAJOR_AXIS":"6927.959","PERIOD":"95.646","APOAPSIS":"550.516","PERIAPSIS":"549.131","OBJECT_TYPE":"PAYLOAD","RCS_SIZE":"LARGE","COUNTRY_CODE":"US","LAUNCH_DATE":"2019-11-11","SITE":"AFETR","DECAY_DATE":null,"FILE":"2764641","GP_ID":"155588992","TLE_LINE0":"0 STARLINK-1024","TLE_LINE1":"1 44729U 19074S   20165.66668981  .00041198  00000-0  28326-2 0  9997","TLE_LINE2":"2 44729  52.9988 251.5400 0000999 108.8017  78.0653 15.05548634 32890"},{"CCSDS_OMM_VERS":"2.0","COMMENT":"GENERATED VIA SPACE-TRACK.ORG API","CREATION_DATE":"2020-06-13T22:46:10","ORIGINATOR":"18 SPCS","OBJECT_NAME":"STARLINK-1024","OBJECT_ID":"2019-074S","CENTER_NAME":"EARTH","REF_FRAME":"TEME","TIME_SYSTEM":"UTC","MEAN_ELEMENT_THEORY":"SGP4","EPOCH":"2020-06-13T22:00:00.999936","MEAN_MOTION":"15.05576788","ECCENTRICITY":"0.00010290","INCLINATION":"52.9989","RA_OF_ASC_NODE":"250.4166","ARG_OF_PERICENTER":"114.5214","MEAN_ANOMALY":"348.0316","EPHEMERIS_TYPE":"0","CLASSIFICATION_TYPE":"U","NORAD_CAT_ID":"44729","ELEMENT_SET_NO":"999","REV_AT_EPOCH":"3292","BSTAR":"-0.00023984000000","MEAN_MOTION_DOT":"-0.00003771","MEAN_MOTION_DDOT":"0.0000000000000","SEMIMAJOR_AXIS":"6927.872","PERIOD":"95.644","APOAPSIS":"550.450","PERIAPSIS":"549.024","OBJECT_TYPE":"PAYLOAD","RCS_SIZE":"LARGE","COUNTRY_CODE":"US","LAUNCH_DATE":"2019-11-11","SITE":"AFETR","DECAY_DATE":null,"FILE":"2764796","GP_ID":"155613376","TLE_LINE0":"0 STARLINK-1024","TLE_LINE1":"1 44729U 19074S   20165.91667824 -.00003771  00000-0 -23984-3 0  9993","TLE_LINE2":"2 44729  52.9989 250.4166 0001029 114.5214 348.0316 15.05576788 32927"},{"CCSDS_OMM_VERS":"2.0","COMMENT":"GENERATED VIA SPACE-TRACK.ORG API","CREATION_DATE":"2020-06-14T03:26:09","ORIGINATOR":"18 SPCS","OBJECT_NAME":"STARLINK-1024","OBJECT_ID":"2019-074S","CENTER_NAME":"EARTH","REF_FRAME":"TEME","TIME_SYSTEM":"UTC","MEAN_ELEMENT_THEORY":"SGP4","EPOCH":"2020-06-14T02:00:01.000224","MEAN_MOTION":"15.05546211","ECCENTRICITY":"0.00010700","INCLINATION":"52.9989","RA_OF_ASC_NODE":"249.6677","ARG_OF_PERICENTER":"120.7554","MEAN_ANOMALY":"165.6521","EPHEMERIS_TYPE":"0","CLASSIFICATION_TYPE":"U","NORAD_CAT_ID":"44729","ELEMENT_SET_NO":"999","REV_AT_EPOCH":"3295","BSTAR":"0.00278810000000","MEAN_MOTION_DOT":"0.00040540","MEAN_MOTION_DDOT":"0.0000000000000","SEMIMAJOR_AXIS":"6927.966","PERIOD":"95.646","APOAPSIS":"550.572","PERIAPSIS":"549.090","OBJECT_TYPE":"PAYLOAD","RCS_SIZE":"LARGE","COUNTRY_CODE":"US","LAUNCH_DATE":"2019-11-11","SITE":"AFETR","DECAY_DATE":null,"FILE":"2764865","GP_ID":"155634589","TLE_LINE0":"0 STARLINK-1024","TLE_LINE1":"1 44729U 19074S   20166.08334491  .00040540  00000-0  27881-2 0  9995","TLE_LINE2":"2 44729  52.9989 249.6677 0001070 120.7554 165.6521 15.05546211 32958"},{"CCSDS_OMM_VERS":"2.0","COMMENT":"GENERATED VIA SPACE-TRACK.ORG API","CREATION_DATE":"2020-06-14T03:26:09","ORIGINATOR":"18 SPCS","OBJECT_NAME":"STARLINK-1024","OBJECT_ID":"2019-074S","CENTER_NAME":"EARTH","REF_FRAME":"TEME","TIME_SYSTEM":"UTC","MEAN_ELEMENT_THEORY":"SGP4","EPOCH":"2020-06-14T02:00:01.000224","MEAN_MOTION":"15.05546211","ECCENTRICITY":"0.00010700","INCLINATION":"52.9989","RA_OF_ASC_NODE":"249.6677","ARG_OF_PERICENTER":"120.7554","MEAN_ANOMALY":"165.6521","EPHEMERIS_TYPE":"0","CLASSIFICATION_TYPE":"U","NORAD_CAT_ID":"44729","ELEMENT_SET_NO":"999","REV_AT_EPOCH":"3295","BSTAR":"0.00278810000000","MEAN_MOTION_DOT":"0.00040540","MEAN_MOTION_DDOT":"0.0000000000000","SEMIMAJOR_AXIS":"6927.966","PERIOD":"95.646","APOAPSIS":"550.572","PERIAPSIS":"549.090","OBJECT_TYPE":"PAYLOAD","RCS_SIZE":"LARGE","COUNTRY_CODE":"US","LAUNCH_DATE":"2019-11-11","SITE":"AFETR","DECAY_DATE":null,"FILE":"2764867","GP_ID":"155634614","TLE_LINE0":"0 STARLINK-1024","TLE_LINE1":"1 44729U 19074S   20166.08334491  .00040540  00000-0  27881-2 0  9995","TLE_LINE2":"2 44729  52.9989 249.6677 0001070 120.7554 165.6521 15.05546211 32958"},{"CCSDS_OMM_VERS":"2.0","COMMENT":"GENERATED VIA SPACE-TRACK.ORG API","CREATION_DATE":"2020-06-14T05:46:09","ORIGINATOR":"18 SPCS","OBJECT_NAME":"STARLINK-1024","OBJECT_ID":"2019-074S","CENTER_NAME":"EARTH","REF_FRAME":"TEME","TIME_SYSTEM":"UTC","MEAN_ELEMENT_THEORY":"SGP4","EPOCH":"2020-06-14T04:00:00.999936","MEAN_MOTION":"15.05548508","ECCENTRICITY":"0.00011160","INCLINATION":"52.9988","RA_OF_ASC_NODE":"249.2935","ARG_OF_PERICENTER":"121.4579","MEAN_ANOMALY":"256.8679","EPHEMERIS_TYPE":"0","CLASSIFICATION_TYPE":"U","NORAD_CAT_ID":"44729","ELEMENT_SET_NO":"999","REV_AT_EPOCH":"3296","BSTAR":"0.00332770000000","MEAN_MOTION_DOT":"0.00048498","MEAN_MOTION_DDOT":"0.0000000000000","SEMIMAJOR_AXIS":"6927.959","PERIOD":"95.646","APOAPSIS":"550.597","PERIAPSIS":"549.051","OBJECT_TYPE":"PAYLOAD","RCS_SIZE":"LARGE","COUNTRY_CODE":"US","LAUNCH_DATE":"2019-11-11","SITE":"AFETR","DECAY_DATE":null,"FILE":"2764933","GP_ID":"155636025","TLE_LINE0":"0 STARLINK-1024","TLE_LINE1":"1 44729U 19074S   20166.16667824  .00048498  00000-0  33277-2 0  9999","TLE_LINE2":"2 44729  52.9988 249.2935 0001116 121.4579 256.8679 15.05548508 32965"},{"CCSDS_OMM_VERS":"2.0","COMMENT":"GENERATED VIA SPACE-TRACK.ORG API","CREATION_DATE":"2020-06-14T16:27:11","ORIGINATOR":"18 SPCS","OBJECT_NAME":"STARLINK-1024","OBJECT_ID":"2019-074S","CENTER_NAME":"EARTH","REF_FRAME":"TEME","TIME_SYSTEM":"UTC","MEAN_ELEMENT_THEORY":"SGP4","EPOCH":"2020-06-14T06:00:00.999648","MEAN_MOTION":"15.05570499","ECCENTRICITY":"0.00011350","INCLINATION":"52.9990","RA_OF_ASC_NODE":"248.9195","ARG_OF_PERICENTER":"120.5434","MEAN_ANOMALY":"349.6954","EPHEMERIS_TYPE":"0","CLASSIFICATION_TYPE":"U","NORAD_CAT_ID":"44729","ELEMENT_SET_NO":"999","REV_AT_EPOCH":"176","BSTAR":"0.00056331000000","MEAN_MOTION_DOT":"0.00007935","MEAN_MOTION_DDOT":"0.0000000000000","SEMIMAJOR_AXIS":"6927.892","PERIOD":"95.644","APOAPSIS":"550.543","PERIAPSIS":"548.970","OBJECT_TYPE":"PAYLOAD","RCS_SIZE":"LARGE","COUNTRY_CODE":"US","LAUNCH_DATE":"2019-11-11","SITE":"AFETR","DECAY_DATE":null,"FILE":"2765335","GP_ID":"155663841","TLE_LINE0":"0 STARLINK-1024","TLE_LINE1":"1 44729U 19074S   20166.25001157 +.00007935 +00000-0 +56331-3 0  9998","TLE_LINE2":"2 44729 052.9990 248.9195 0001135 120.5434 349.6954 15.05570499001768"},{"CCSDS_OMM_VERS":"2.0","COMMENT":"GENERATED VIA SPACE-TRACK.ORG API","CREATION_DATE":"2020-06-14T10:06:09","ORIGINATOR":"18 SPCS","OBJECT_NAME":"STARLINK-1024","OBJECT_ID":"2019-074S","CENTER_NAME":"EARTH","REF_FRAME":"TEME","TIME_SYSTEM":"UTC","MEAN_ELEMENT_THEORY":"SGP4","EPOCH":"2020-06-14T08:00:01.999872","MEAN_MOTION":"15.05584300","ECCENTRICITY":"0.00011070","INCLINATION":"52.9990","RA_OF_ASC_NODE":"248.5460","ARG_OF_PERICENTER":"118.6421","MEAN_ANOMALY":"83.5789","EPHEMERIS_TYPE":"0","CLASSIFICATION_TYPE":"U","NORAD_CAT_ID":"44729","ELEMENT_SET_NO":"999","REV_AT_EPOCH":"3299","BSTAR":"-0.00151460000000","MEAN_MOTION_DOT":"-0.00022280","MEAN_MOTION_DDOT":"0.0000000000000","SEMIMAJOR_AXIS":"6927.849","PERIOD":"95.643","APOAPSIS":"550.481","PERIAPSIS":"548.947","OBJECT_TYPE":"PAYLOAD","RCS_SIZE":"LARGE","COUNTRY_CODE":"US","LAUNCH_DATE":"2019-11-11","SITE":"AFETR","DECAY_DATE":null,"FILE":"2765142","GP_ID":"155640836","TLE_LINE0":"0 STARLINK-1024","TLE_LINE1":"1 44729U 19074S   20166.33335648 -.00022280  00000-0 -15146-2 0  9992","TLE_LINE2":"2 44729  52.9990 248.5460 0001107 118.6421  83.5789 15.05584300 32997"},{"CCSDS_OMM_VERS":"2.0","COMMENT":"GENERATED VIA SPACE-TRACK.ORG API","CREATION_DATE":"2020-06-14T13:46:09","ORIGINATOR":"18 SPCS","OBJECT_NAME":"STARLINK-1024","OBJECT_ID":"2019-074S","CENTER_NAME":"EARTH","REF_FRAME":"TEME","TIME_SYSTEM":"UTC","MEAN_ELEMENT_THEORY":"SGP4","EPOCH":"2020-06-14T12:00:00.999648","MEAN_MOTION":"15.05576868","ECCENTRICITY":"0.00010370","INCLINATION":"52.9988","RA_OF_ASC_NODE":"247.7987","ARG_OF_PERICENTER":"110.4007","MEAN_ANOMALY":"275.6077","EPHEMERIS_TYPE":"0","CLASSIFICATION_TYPE":"U","NORAD_CAT_ID":"44729","ELEMENT_SET_NO":"999","REV_AT_EPOCH":"3301","BSTAR":"-0.00135450000000","MEAN_MOTION_DOT":"-0.00019957","MEAN_MOTION_DDOT":"0.0000000000000","SEMIMAJOR_AXIS":"6927.872","PERIOD":"95.644","APOAPSIS":"550.455","PERIAPSIS":"549.019","OBJECT_TYPE":"PAYLOAD","RCS_SIZE":"LARGE","COUNTRY_CODE":"US","LAUNCH_DATE":"2019-11-11","SITE":"AFETR","DECAY_DATE":null,"FILE":"2765159","GP_ID":"155641194","TLE_LINE0":"0 STARLINK-1024","TLE_LINE1":"1 44729U 19074S   20166.50001157 -.00019957  00000-0 -13545-2 0  9994","TLE_LINE2":"2 44729  52.9988 247.7987 0001037 110.4007 275.6077 15.05576868 33019"}]